     2.10           G: GLONASS NAV DATA                     RINEX VERSION / TYPE
teqc  2015Jun23                         20220710 01:25:43UTCPGM / RUN BY / DATE
Linux 2.4.21-27.ELsmp|Opteron|gcc -static|Linux x86_64|=+   COMMENT
  2022     6    29    7.450580596924D-09                    CORR TO SYSTEM TIME
                                                            END OF HEADER
 7 22  6 30 19 45  0.0 3.718677908182D-05 0.000000000000D+00 7.020000000000D+04
   -5.304054687500D+03 3.185367584229D-02 1.862645149231D-09 0.000000000000D+00
    2.089275097656D+04-1.871143341064D+00 3.725290298462D-09 5.000000000000D+00
   -1.356277978516D+04-2.890207290649D+00-9.313225746155D-10 0.000000000000D+00
 8 22  6 30 19 45  0.0-6.594415754080D-05-0.000000000000D+00 7.020000000000D+04
    2.507933593750D+03 1.841764450073D-01 9.313225746155D-10 0.000000000000D+00
    2.526135156250D+04 3.149538040161D-01 2.793967723846D-09 6.000000000000D+00
    2.427838867188D+03-3.555166244507D+00-2.793967723846D-09 0.000000000000D+00
20 22  6 30 19 45  0.0-7.366761565208D-05-9.094947017729D-13 7.026000000000D+04
   -2.202318359375D+04 1.310963630676D+00 1.862645149231D-09 0.000000000000D+00
    7.894473144531D+03-5.142593383789D-01-9.313225746155D-10 2.000000000000D+00
    1.011855175781D+04 3.257810592651D+00-9.313225746155D-10 0.000000000000D+00
21 22  6 30 20 15  0.0-3.136927261949D-04-2.728484105319D-12 7.200000000000D+04
   -1.831523583984D+04-2.080898284912D-01 2.793967723846D-09 0.000000000000D+00
    1.744079199219D+04 4.846048355103D-01 9.313225746155D-10 4.000000000000D+00
   -3.447010742188D+03 3.562694549561D+00-9.313225746155D-10 0.000000000000D+00
 1 22  6 30 20 15  0.0 1.074187457561D-05 0.000000000000D+00 7.200000000000D+04
    1.018313427734D+04 4.700183868408D-01 0.000000000000D+00 0.000000000000D+00
    2.005884033203D+04 1.584652900696D+00 1.862645149231D-09 1.000000000000D+00
    1.204544824219D+04-3.035436630249D+00-2.793967723846D-09 0.000000000000D+00
 7 22  6 30 20 15  0.0 3.718677908182D-05-0.000000000000D+00 7.200000000000D+04
   -5.578304199219D+03-3.615188598633D-01 1.862645149231D-09 0.000000000000D+00
    1.694562158203D+04-2.474991798401D+00 3.725290298462D-09 5.000000000000D+00
   -1.817070263672D+04-2.196270942688D+00-0.000000000000D+00 0.000000000000D+00
 8 22  6 30 20 15  0.0-6.594415754080D-05-0.000000000000D+00 7.200000000000D+04
    2.763850097656D+03 5.963897705078D-02 1.862645149231D-09 0.000000000000D+00
    2.502146533203D+04-5.749893188477D-01 3.725290298462D-09 6.000000000000D+00
   -3.982637207031D+03-3.521238327026D+00-1.862645149231D-09 0.000000000000D+00
11 22  6 30 20 15  0.0 3.466475754976D-05-9.094947017729D-13 7.212000000000D+04
    3.920955566406D+03-2.841288566589D+00-0.000000000000D+00 0.000000000000D+00
    1.229327246094D+04-9.986953735352D-01-0.000000000000D+00 0.000000000000D+00
    2.202023486328D+04 1.062481880188D+00-2.793967723846D-09 0.000000000000D+00
21 22  6 30 20 45  0.0-3.136973828077D-04-2.728484105319D-12 7.380000000000D+04
   -1.806718164062D+04 4.546632766724D-01 1.862645149231D-09 0.000000000000D+00
    1.777339404297D+04-1.460313796997D-01-0.000000000000D+00 4.000000000000D+00
    3.016154785156D+03 3.572046279907D+00-9.313225746155D-10 0.000000000000D+00
 1 22  6 30 20 45  0.0 1.074373722076D-05 0.000000000000D+00 7.380000000000D+04
    1.102225976562D+04 4.209260940552D-01 9.313225746155D-10 0.000000000000D+00
    2.216734619141D+04 7.484426498413D-01 2.793967723846D-09 1.000000000000D+00
    6.186986816406D+03-3.431742668152D+00-2.793967723846D-09 0.000000000000D+00
 7 22  6 30 20 45  0.0 3.718677908182D-05 0.000000000000D+00 7.380000000000D+04
   -6.667122558594D+03-8.568553924561D-01 1.862645149231D-09 0.000000000000D+00
    1.214460791016D+04-2.810548782349D+00 2.793967723846D-09 5.000000000000D+00
   -2.136668212891D+04-1.331667900085D+00 0.000000000000D+00 0.000000000000D+00
 8 22  6 30 20 45  0.0-6.594508886337D-05-0.000000000000D+00 7.380000000000D+04
    2.586094726562D+03-2.910184860229D-01 1.862645149231D-09 0.000000000000D+00
    2.324930957031D+04-1.368933677673D+00 3.725290298462D-09 6.000000000000D+00
   -1.008424365234D+04-3.214074134827D+00-1.862645149231D-09 0.000000000000D+00
11 22  6 30 20 45  0.0 3.466382622719D-05-9.094947017729D-13 7.380000000000D+04
   -1.465646484375D+03-3.096095085144D+00 0.000000000000D+00 0.000000000000D+00
    1.083757617188D+04-5.994148254395D-01-9.313225746155D-10 0.000000000000D+00
    2.305828369141D+04 8.339691162109D-02-1.862645149231D-09 0.000000000000D+00
21 22  6 30 21 15  0.0-3.137029707432D-04-2.728484105319D-12 7.560000000000D+04
   -1.680646972656D+04 9.053392410278D-01 1.862645149231D-09 0.000000000000D+00
    1.683152148438D+04-9.150285720825D-01-9.313225746155D-10 4.000000000000D+00
    9.246448730469D+03 3.305599212646D+00-9.313225746155D-10 0.000000000000D+00
 1 22  6 30 21 15  0.0 1.074466854334D-05 0.000000000000D+00 7.560000000000D+04
    1.154978271484D+04 1.255426406860D-01 1.862645149231D-09 0.000000000000D+00
    2.275334472656D+04-8.767223358154D-02 2.793967723846D-09 1.000000000000D+00
   -1.493764648438D+02-3.562989234924D+00-2.793967723846D-09 0.000000000000D+00
 7 22  6 30 21 15  0.0 3.718677908182D-05 0.000000000000D+00 7.560000000000D+04
   -8.660980468750D+03-1.348773002625D+00 1.862645149231D-09 0.000000000000D+00
    7.009764160156D+03-2.844170570374D+00 1.862645149231D-09 5.000000000000D+00
   -2.290266259766D+04-3.639278411865D-01 9.313225746155D-10 0.000000000000D+00
 8 22  6 30 21 15  0.0-6.594695150852D-05-0.000000000000D+00 7.560000000000D+04
    1.615867675781D+03-8.077592849731D-01 2.793967723846D-09 0.000000000000D+00
    2.021193701172D+04-1.966242790222D+00 2.793967723846D-09 6.000000000000D+00
   -1.540286230469D+04-2.656842231750D+00-9.313225746155D-10 0.000000000000D+00
23 22  6 30 21 15  0.0-4.611071199179D-05-9.094947017729D-13 7.566000000000D+04
    2.551316406250D+03-1.646317481995D+00 2.793967723846D-09 0.000000000000D+00
    1.316683203125D+04 2.478426933289D+00 2.793967723846D-09 3.000000000000D+00
   -2.171212255859D+04 1.310302734375D+00-0.000000000000D+00 0.000000000000D+00
21 22  6 30 21 45  0.0-3.137076273561D-04-2.728484105319D-12 7.740000000000D+04
   -1.496577197266D+04 1.094550132751D+00 0.000000000000D+00 0.000000000000D+00
    1.446150732422D+04-1.713364601135D+00-1.862645149231D-09 4.000000000000D+00
    1.476267187500D+04 2.783746719360D+00-9.313225746155D-10 0.000000000000D+00
 1 22  6 30 21 45  0.0 1.074559986591D-05 0.000000000000D+00 7.740000000000D+04
    1.134518261719D+04-3.835449218750D-01 2.793967723846D-09 0.000000000000D+00
    2.191899316406D+04-8.123741149902D-01 2.793967723846D-09 1.000000000000D+00
   -6.474201171875D+03-3.418995857239D+00-1.862645149231D-09 0.000000000000D+00
 8 22  6 30 21 45  0.0-6.594881415367D-05-9.094947017729D-13 7.740000000000D+04
   -3.662602539062D+02-1.397957801819D+00 2.793967723846D-09 0.000000000000D+00
    1.633090869141D+04-2.298224449158D+00 1.862645149231D-09 6.000000000000D+00
   -1.952429638672D+04-1.892535209656D+00-0.000000000000D+00 0.000000000000D+00
23 22  6 30 21 45  0.0-4.611257463694D-05-9.094947017729D-13 7.740000000000D+04
    1.168945312500D+02-1.052019119263D+00 2.793967723846D-09 0.000000000000D+00
    1.752837109375D+04 2.317140579224D+00 1.862645149231D-09 3.000000000000D+00
   -1.854592089844D+04 2.184931755066D+00-0.000000000000D+00 0.000000000000D+00
11 22  6 30 21 45  0.0 3.466010093689D-05-9.094947017729D-13 7.749000000000D+04
   -1.226316650391D+04-2.702281951904D+00-0.000000000000D+00 0.000000000000D+00
    1.031969287109D+04 2.825193405151D-01-2.793967723846D-09 0.000000000000D+00
    1.985130322266D+04-1.818927764893D+00-9.313225746155D-10 0.000000000000D+00
 2 22  6 30 21 45  0.0 5.228212103248D-04 9.094947017729D-13 7.785000000000D+04
    1.655445898438D+04 1.073375701904D+00 9.313225746155D-10 0.000000000000D+00
    1.453044775391D+04 1.395967483521D+00 9.313225746155D-10-4.000000000000D+00
    1.285567480469D+04-2.975766181946D+00-2.793967723846D-09 0.000000000000D+00
21 22  6 30 22 15  0.0-3.137132152915D-04-2.728484105319D-12 7.920000000000D+04
   -1.302609716797D+04 1.018639564514D+00-9.313225746155D-10 0.000000000000D+00
    1.071674560547D+04-2.423157691956D+00-2.793967723846D-09 4.000000000000D+00
    1.913841845703D+04 2.046589851379D+00-9.313225746155D-10 0.000000000000D+00
 1 22  6 30 22 15  0.0 1.074746251106D-05 0.000000000000D+00 7.920000000000D+04
    1.008355908203D+04-1.034119606018D+00 3.725290298462D-09 0.000000000000D+00
    1.995081738281D+04-1.334900856018D+00 1.862645149231D-09 1.000000000000D+00
   -1.229883984375D+04-3.010821342468D+00-9.313225746155D-10 0.000000000000D+00
 2 22  6 30 22 15  0.0 5.228230729699D-04 0.000000000000D+00 7.920000000000D+04
    1.823481494141D+04 7.502307891846D-01 1.862645149231D-09 0.000000000000D+00
    1.634725341797D+04 6.264638900757D-01 1.862645149231D-09-4.000000000000D+00
    7.071044921875D+03-3.409930229187D+00-2.793967723846D-09 0.000000000000D+00
 8 22  6 30 22 15  0.0-6.594974547625D-05-9.094947017729D-13 7.920000000000D+04
   -3.395053222656D+03-1.951999664307D+00 2.793967723846D-09 0.000000000000D+00
    1.211393554688D+04-2.339118003845D+00 9.313225746155D-10 6.000000000000D+00
   -2.212720507812D+04-9.806528091431D-01 0.000000000000D+00 0.000000000000D+00
11 22  6 30 22 15  0.0 3.465823829174D-05-9.094947017729D-13 7.920000000000D+04
   -1.661738623047D+04-2.099099159241D+00-0.000000000000D+00 0.000000000000D+00
    1.110459912109D+04 5.586709976196D-01-2.793967723846D-09 0.000000000000D+00
    1.585254150391D+04-2.595379829407D+00-0.000000000000D+00 0.000000000000D+00
23 22  6 30 22 15  0.0-4.611443728209D-05-9.094947017729D-13 7.920000000000D+04
   -1.246817382812D+03-4.755897521973D-01 3.725290298462D-09 0.000000000000D+00
    2.133055175781D+04 1.860806465149D+00 9.313225746155D-10 3.000000000000D+00
   -1.394769580078D+04 2.891116142273D+00-9.313225746155D-10 0.000000000000D+00
